ONEWEB-0102             
1 47258U 20100A   25075.55931921  .00000000  00000+0 -35130-4 0  9999
2 47258  87.8803  81.7645 0001787  85.0069 275.1264 13.12442180204700
ONEWEB-0109             
1 47259U 20100B   25075.56741338 -.00000260  00000+0 -75799-3 0  9995
2 47259  87.8804  81.7306 0001865  85.5349 274.5992 13.12440098204537
ONEWEB-0110             
1 47260U 20100C   25075.51712739 -.00000137  00000+0 -41637-3 0  9992
2 47260  87.8798  81.7303 0001979  86.2834 273.8521 13.12445396204694
ONEWEB-0111             
1 47261U 20100D   25075.54797472  .00000393  00000+0  10565-2 0  9990
2 47261  87.8804  81.7341 0001840  87.1316 273.0023 13.12442408204530
ONEWEB-0114             
1 47262U 20100E   25075.73124453 -.00000385  00000+0 -11064-2 0  9993
2 47262  87.8797  81.7014 0001589  81.6422 278.4886 13.12444794204510
ONEWEB-0117             
1 47263U 20100F   25075.57065461 -.00000318  00000+0 -91877-3 0  9996
2 47263  87.8803  81.7205 0001925  89.4783 270.6567 13.12440107204504
ONEWEB-0118             
1 47264U 20100G   25075.52687816  .00000215  00000+0  56099-3 0  9997
2 47264  87.8802  81.7312 0001532  91.6720 268.4584 13.12444766204692
ONEWEB-0119             
1 47265U 20100H   25075.55445371  .00000168  00000+0  43076-3 0  9997
2 47265  87.8803  81.7648 0001896  87.5033 272.6313 13.12442435204676
